[{"OBJECT_NAME":"STARLINK-1269","OBJECT_ID":"2020-012V","EPOCH":"2026-03-09T08:32:12.089472","MEAN_MOTION":15.30171241,"ECCENTRICITY":0.00014864,"INCLINATION":53.1625,"RA_OF_ASC_NODE":41.1374,"ARG_OF_PERICENTER":101.6741,"MEAN_ANOMALY":258.4426,"EPHEMERIS_TYPE":0,"CLASSIFICATION_TYPE":"U","NORAD_CAT_ID":45197,"ELEMENT_SET_NO":999,"REV_AT_EPOCH":33486,"BSTAR":-4.57043e-5,"MEAN_MOTION_DOT":-1.711e-5,"MEAN_MOTION_DDOT":0},{"OBJECT_NAME":"NUSAT-41 (C PAYNE-G)","OBJECT_ID":"2023-084N","EPOCH":"2026-03-09T21:55:54.837696","MEAN_MOTION":15.29680045,"ECCENTRICITY":0.00062175,"INCLINATION":97.5351,"RA_OF_ASC_NODE":204.1011,"ARG_OF_PERICENTER":322.2064,"MEAN_ANOMALY":37.8738,"EPHEMERIS_TYPE":0,"CLASSIFICATION_TYPE":"U","NORAD_CAT_ID":56944,"ELEMENT_SET_NO":999,"REV_AT_EPOCH":15260,"BSTAR":0.00059912824,"MEAN_MOTION_DOT":0.0001718,"MEAN_MOTION_DDOT":0}]
